IRIDIUM 106             
1 41917U 17003A   24236.64339894  .00000335  00000+0  11261-3 0  9990
2 41917  86.4013   5.3906 0001788  90.4513 269.6887 14.34213550398245
IRIDIUM 103             
1 41918U 17003B   24236.63071426  .00000865  00000+0  30186-3 0  9999
2 41918  86.4014   5.2974 0002379  80.4367 279.7097 14.34215061398260
IRIDIUM 109             
1 41919U 17003C   24236.63706498  .00000154  00000+0  48079-4 0  9996
2 41919  86.4015   5.3434 0002617  94.5487 265.6007 14.34217234398234
IRIDIUM 102             
1 41920U 17003D   24236.60535216  .00000755  00000+0  26233-3 0  9997
2 41920  86.4013   5.2941 0002205  95.5068 264.6379 14.34221096398316
IRIDIUM 105             
1 41921U 17003E   24236.50615140  .00001000  00000+0  35002-3 0  9990
2 41921  86.4018 333.7899 0002186  89.0253 271.1194 14.34229575400159
IRIDIUM 104             
1 41922U 17003F   24236.61803297  .00000694  00000+0  24077-3 0  9993
2 41922  86.4012   5.3212 0002542  91.0082 269.1405 14.34213952398301
IRIDIUM 114             
1 41923U 17003G   24236.41506888  .00000683  00000+0  23671-3 0  9995
2 41923  86.4014   5.3919 0001949  91.8642 268.2777 14.34222483398253
IRIDIUM 108             
1 41924U 17003H   24236.51312146  .00000047  00000+0  96544-5 0  9994
2 41924  86.4012 333.7075 0002068  96.9653 263.1778 14.34213665400121
